#dP2022  7  1  0  0  0.00000000     289 ORBIT ITRF  BHN ESOC                    
## 2216 432000.00000000   300.00000000 59761 0.0000000000000                    
+  115   G22G13G28G21G07G05G20G31G17G15G16G29G12G19G02G25G01                    
+        G30G24G27G06G09G03G32G26G08G10G04G18G23G14G11R09R11                    
+        R20R19R13R01R08R03R07R02R17R14R18R21R05R15R12R04R24                    
+        E11E12E19E18E14E26E24E30E08E09E01E02E07E03E04E05E21                    
+        E25E27E31E36E13E15E33E34E10C11C12C14C19C20C27C28C22                    
+        C21C29C30C23C24C26C25C32C33C35C34C36C37C46C45C44C43                    
+        C41C42C06C08C10C13C16C38C39C40J02J03J04  0  0  0  0                    
++         4  4  4  5  4  4  4  4  5  4  5  4  5  5  4  4  5                    
++         4  4  4  4  4  5  4  4  4  5  4  4  5  4  4  5  5                    
++         6  6  6  5  5  5  5  4  5  4  5  4  5  5  4  5  6                    
++         4  5  4  4  5  5  4  5  4  4  4  5  5  5  4  5  5                    
++         4  4  4  5  5  5  4  5  5  5  5  5  5  5  4  5  5                    
++         5  5  5  5  4  5  5  5  5  5  5  5  5  6  5  5  5                    
++         6  6  7  6  5  7  7  8  2  7  8  8  7  0  0  0  0                    
%c M  cc GPS ccc cccc cccc cccc cccc ccccc ccccc ccccc ccccc                    
%c cc cc ccc ccc cccc cccc cccc cccc ccccc ccccc ccccc ccccc                    
%f  0.0000000  0.000000000  0.00000000000  0.000000000000000                    
%f  0.0000000  0.000000000  0.00000000000  0.000000000000000                    
%i    0    0    0    0      0      0      0      0         0                    
%i    0    0    0    0      0      0      0      0         0                    
/* CCCCCCCCCCCCCCCCCCCCCCCCCCCCCCCCCCCCCCCCCCCCCCCCCCCCCCCCCCCCCCCCCCCCCCCCCCCCC
/* CCCCCCCCCCCCCCCCCCCCCCCCCCCCCCCCCCCCCCCCCCCCCCCCCCCCCCCCCCCCCCCCCCCCCCCCCCCCC
/* CCCCCCCCCCCCCCCCCCCCCCCCCCCCCCCCCCCCCCCCCCCCCCCCCCCCCCCCCCCCCCCCCCCCCCCCCCCCC
/* PCV:IGS        OL/AL:EOT11A   NONE     YN ORB:CoN CLK:CoN                    
*  2022  7  1 22 25  0.00000000                                                 
PG22 -15816.289877  -9959.268180 -18521.820244    285.189980                    
PG13  13878.900061  -6309.478017  21577.704622    340.346363                    
PG28  24296.496208   9899.283576   3727.543903    329.161618                    
PG21 -17398.511437  19350.038758   3473.388696    161.239921                    
PG07   1623.627037  18682.590983  19026.603637    320.607405                    
PG05  21217.229599  -6850.453282  14375.092952    -87.580221                    
PG20  26167.627206  -1508.174851   3442.202938    506.734266                    
PG31 -18261.662700   -609.774704 -19564.380920   -184.059103                    
PG17  13059.831408  20152.466867 -10853.589449    631.820457                    
PG15   6808.209437 -17288.437191  18446.802497    -48.794446                    
PG16 -24576.456762    200.416081  10361.226083   -512.753113                    
PG29  -3785.164283 -25918.865376  -4200.097439   -529.513448                    
PG12  11648.166174 -11769.452205 -21011.458232   -239.835234                    
PG19  15291.024639  12705.652536 -17981.274453    178.114422                    
PG02  19761.165288 -12541.175252 -12052.293872   -652.050467                    
PG25  -3941.399722 -15967.097548 -21191.372324    344.142056                    
PG01 -12672.821565  21852.039163  -7907.296627    329.843983                    
PG30  10715.182204  11672.497815  21396.370881   -532.951700                    
PG24  13725.009777 -22299.510338  -3100.371671    207.602550                    
PG27 -14858.470821   2314.962632  21701.240893    219.236208                    
PG06  16087.028057   2680.001708 -20922.381182    367.014168                    
PG09   5623.089684  25505.443516  -4799.423032   -323.198372                    
PG03  -7536.416686  13506.071156 -21693.765832   -295.408664                    
PG32 -15540.162768 -17397.197651 -12725.262144   -165.328569                    
PG26 -26454.335877  -3847.321080   -189.054966    215.755407                    
PG08  -8234.287940  16266.672367  19146.321559    -74.446047                    
PG10 -21550.314575 -11665.592250  10757.340935   -476.295921                    
PG04  -3371.046340  22340.291877 -13881.556582   -150.848918                    
PG18   -523.294363 -18589.397825  18906.989846    125.905965                    
PG23 -12341.697902 -14823.463719  18296.673326    -30.930709                    
PG14  20060.123456  13174.665644  11488.819918   -112.017079                    
PG11  21385.996558  -9109.369318 -12831.247474    -12.021168                    
PR09   -448.099021 -11537.809892 -22728.755264     63.479365                    
PR11 -24756.468300   4945.625833  -3573.357765     34.527916                    
PR20   3687.769547 -23696.290972   8748.202779    -73.778367                    
PR19  11742.552340 -19480.511562 -11546.680687   -194.777942                    
PR13  -1081.327284  11571.432692  22696.181737    -24.207729                    
PR01  -5984.790410   9513.485561 -22896.241284     10.766661                    
PR08 -16858.107461  -4818.450041 -18479.212645    -66.018430                    
PR03  18850.821226  16690.567779   3961.579157     59.421579                    
PR07 -18975.026132 -16451.243718  -4563.383980     37.196506                    
PR02  10048.589690  19383.966165 -13093.344752    522.884738                    
PR17   6810.986845  11785.542182 -21581.507837    539.765653                    
PR14  17701.196927   4293.590961  17884.064038     24.994690                    
PR18  11951.008493  -5983.236244 -21729.992681    122.117570                    
PR21  -7378.920309 -10253.244359  22146.974219   -314.028826                    
PR05   5675.488295  -9567.188048  22969.220118     95.507734                    
PR15  24859.433009  -5068.916882   2703.055937     94.912554                    
PR12 -17504.006695  11690.999695  14447.769270     19.088389                    
PR04  16819.189916   4983.523784  18545.371454    149.100793                    
PR24  -2525.259708  23623.800817  -9299.558977    101.417023                    
PE11 -19066.509296  22152.991423   4619.692241   3158.270883                    
PE12 -20244.936555   5301.715382  20916.775204    -40.017806                    
PE19 -15666.508542 -24465.889736  -5657.990613  -5213.074446                    
PE18 -14544.602270 -12950.117328  13063.793457  -1263.727415                    
PE14  20435.799800  17561.521432 -18124.003879  -1791.440078                    
PE26   6368.423248 -25254.657784  14057.241734  -1327.862607                    
PE24 -21342.337121  10194.384330  17799.355410   -701.609529                    
PE30  29502.569998   2128.120445   -993.688032   -638.060996                    
PE08  19285.410119   5344.537594  21820.249130   -556.319635                    
PE09 -10301.097551  15623.475920 -22931.166300   -572.929790                    
PE01 -20454.697649 -13348.004712 -16716.773212   -507.004080                    
PE02  20591.924040  13280.566052  16600.232421    309.255642                    
PE07  10518.187702 -15593.891793  22862.054693   -683.654455                    
PE03  16879.753035  22992.576388   7945.589580   -574.634198                    
PE04 -19408.206954  -5559.540470 -21635.520817  -1062.232220                    
PE05   4358.713912  27250.418892 -10705.902051   -166.921044                    
PE21   -987.709697 -16757.028379 -24377.141068   -743.451993                    
PE25    657.910446  16747.068735  24406.868424   -579.581359                    
PE27  20339.473075 -10839.741777 -18564.978629   -335.047411                    
PE31 -29506.295177  -1387.037059   1903.327941   -499.208169                    
PE36  -7117.703999  25438.723283 -13355.096928   -396.131416                    
PE13  19294.508204 -21801.558670  -5367.343984    429.593214                    
PE15  20143.150666  -5234.730996 -21052.054045    735.904112                    
PE33  -9103.319472 -14338.472607  24238.991829   -455.100971                    
PE34   9286.446040  14160.755412 -24291.812927   -524.964455                    
PE10 -21335.196543  14778.936021  14222.819115   -523.462678                    
PC11   8123.736544 -25566.982121  -7565.137730    448.735331                    
PC12  14999.743158 -10947.960855 -20795.631224   -586.806203                    
PC14   4870.200231 -15622.699966  22616.786528    523.767153                    
PC19   5366.409719  19690.276052 -19018.845359   -119.787778                    
PC20 -12438.687583  10300.632349 -22740.753481   -964.534581                    
PC27 -15983.188846    759.340936  22837.535365    747.623399                    
PC28 -10484.376165 -18677.874286  17882.061318     85.025709                    
PC22  20807.341464  18154.832768  -4147.655478   -963.126684                    
PC21  23980.579180   6002.861716  12992.853526   -594.653109                    
PC29   -560.523096  27840.317048  -1851.407574    575.921980                    
PC30 -12000.451735  19988.099182  15311.880426    500.540039                    
PC23 -13922.388490 -10768.258282 -21643.024478   -939.805858                    
PC24  22689.352113 -15086.458554  -5981.142437   -968.563863                    
PC26  25649.917251  -4507.005245   9973.699095    715.478750                    
PC25   4795.619705 -18534.129162 -20300.247303   -713.798034                    
PC32 -24018.143611  -5862.975165 -12911.638061   -973.658007                    
PC33  -5316.952504 -19644.313787  19088.925879    -65.673821                    
PC35  10646.128535  19276.262164 -17136.429665    346.396888                    
PC34  11602.665122 -20831.520847 -14529.402205   -368.346065                    
PC36  -5814.783034  18517.137281  20081.206440   -971.814278                    
PC37 -25479.465273   3027.564054 -10972.684367   -912.810372                    
PC46 -21795.105162  15776.066039   7479.627670   -409.251410                    
PC45  14162.192236  10471.939719  21649.711566    797.955824                    
PC44  16096.934914  -1123.186636 -22785.067473    710.382168                    
PC43   1149.988579 -27870.389669   1114.083237      0.452694                    
PC41 -20540.050429 -18305.113399   4697.451497    -46.420611                    
PC42  13473.735017  -9526.297951  22551.629586   -956.141392                    
PC06  -9520.866298  40810.740281  -3209.430830    305.307646                    
PC08 -17301.939889  24993.313764 -29301.880520    386.787127                    
PC10   4587.988598  31154.091793  28515.205681    122.004004                    
PC13 -11633.173310  26053.337380 -31018.224647     11.845595                    
PC16 -10733.762536  40208.802856  -5711.498813    141.933758                    
PC38 -23655.989599  26533.374277 -22776.753746      7.078612                    
PC39 -12078.619909  38453.418130 -11985.275588     34.934216                    
PC40  -6382.418878  23529.579677  34424.395446    281.969621                    
PJ02 -30300.240205  22557.409401  23665.978109     -1.207909                    
PJ03 -28350.424902  28843.032323  16742.604044     -3.219440                    
PJ04 -25573.826963  21195.297545 -20730.979111    116.958281                    
EOF                                                                             
